{"type": "FeatureCollection", "features": [ {"type": "Feature", "properties": {"norad_id": 34432, "name": "COSMOS 2251 DEB", "group": "cosmos-2251-debris", "lat": -59.82883373474876, "lon": -62.70620673359019, "alt_km": 854.9509431118713, "timestamp": "2025-12-21T05:44:51.981700+00:00", "meta": {"OBJECT_NAME": "COSMOS 2251 DEB", "OBJECT_ID": "1993-036RZ", "EPOCH": "2025-12-20T17:11:52.156896", "MEAN_MOTION": 14.02937662, "ECCENTRICITY": 0.01818257, "INCLINATION": 73.8282, "RA_OF_ASC_NODE": 88.2711, "ARG_OF_PERICENTER": 169.7091, "MEAN_ANOMALY": 312.4038, "EPHEMERIS_TYPE": 0, "CLASSIFICATION_TYPE": "U", "NORAD_CAT_ID": 34432, "ELEMENT_SET_NO": 999, "REV_AT_EPOCH": 85796, "BSTAR": 0.00073625143, "MEAN_MOTION_DOT": 1.296e-05, "MEAN_MOTION_DDOT": 0}, "tle": {"line1": "1 34432U 93036RZ  25354.71657589  .00001296  00000+0  73625-3 0  9997", "line2": "2 34432  73.8282  88.2711 0181825 169.7091 312.4038 14.02937662857969"}}, "geometry": {"type": "Point", "coordinates": [-62.70620673359019, -59.82883373474876]}}, {"type": "Feature", "properties": {"norad_id": 34433, "name": "COSMOS 2251 DEB", "group": "cosmos-2251-debris", "lat": -27.3844403804069, "lon": -31.572926740570256, "alt_km": 811.536343706799, "timestamp": "2025-12-21T05:44:51.981710+00:00", "meta": {"OBJECT_NAME": "COSMOS 2251 DEB", "OBJECT_ID": "1993-036SA", "EPOCH": "2025-12-20T20:15:06.519744", "MEAN_MOTION": 14.12884599, "ECCENTRICITY": 0.01527234, "INCLINATION": 74.0101, "RA_OF_ASC_NODE": 140.5858, "ARG_OF_PERICENTER": 276.9549, "MEAN_ANOMALY": 81.4241, "EPHEMERIS_TYPE": 0, "CLASSIFICATION_TYPE": "U", "NORAD_CAT_ID": 34433, "ELEMENT_SET_NO": 999, "REV_AT_EPOCH": 86064, "BSTAR": 0.00076987102, "MEAN_MOTION_DOT": 1.574e-05, "MEAN_MOTION_DDOT": 0}, "tle": {"line1": "1 34433U 93036SA  25354.84382546  .00001574  00000+0  76987-3 0  9993", "line2": "2 34433  74.0101 140.5858 0152723 276.9549  81.4241 14.12884599860640"}}, "geometry": {"type": "Point", "coordinates": [-31.572926740570256, -27.3844403804069]}}, {"type": "Feature", "properties": {"norad_id": 34434, "name": "COSMOS 2251 DEB", "group": "cosmos-2251-debris", "lat": 60.1999409303404, "lon": 145.73920555669105, "alt_km": 729.6321166230118, "timestamp": "2025-12-21T05:44:51.981720+00:00", "meta": {"OBJECT_NAME": "COSMOS 2251 DEB", "OBJECT_ID": "1993-036SB", "EPOCH": "2025-12-20T19:07:06.982176", "MEAN_MOTION": 13.89853907, "ECCENTRICITY": 0.02739074, "INCLINATION": 74.0623, "RA_OF_ASC_NODE": 356.4221, "ARG_OF_PERICENTER": 131.8017, "MEAN_ANOMALY": 289.3928, "EPHEMERIS_TYPE": 0, "CLASSIFICATION_TYPE": "U", "NORAD_CAT_ID": 34434, "ELEMENT_SET_NO": 999, "REV_AT_EPOCH": 84078, "BSTAR": 0.001448571, "MEAN_MOTION_DOT": 2.389e-05, "MEAN_MOTION_DDOT": 0}, "tle": {"line1": "1 34434U 93036SB  25354.79660859  .00002389  00000+0  14486-2 0  9994", "line2": "2 34434  74.0623 356.4221 0273907 131.8017 289.3928 13.89853907840785"}}, "geometry": {"type": "Point", "coordinates": [145.73920555669105, 60.1999409303404]}}, {"type": "Feature", "properties": {"norad_id": 34446, "name": "COSMOS 2251 DEB", "group": "cosmos-2251-debris", "lat": -35.62990137411248, "lon": 29.508034504941698, "alt_km": 763.3309831545221, "timestamp": "2025-12-21T05:44:51.981730+00:00", "meta": {"OBJECT_NAME": "COSMOS 2251 DEB", "OBJECT_ID": "1993-036SP", "EPOCH": "2025-12-20T13:21:19.051200", "MEAN_MOTION": 14.49360911, "ECCENTRICITY": 0.005077, "INCLINATION": 74.0417, "RA_OF_ASC_NODE": 42.6229, "ARG_OF_PERICENTER": 178.8046, "MEAN_ANOMALY": 181.3246, "EPHEMERIS_TYPE": 0, "CLASSIFICATION_TYPE": "U", "NORAD_CAT_ID": 34446, "ELEMENT_SET_NO": 999, "REV_AT_EPOCH": 88807, "BSTAR": 8.7219e-05, "MEAN_MOTION_DOT": 3.1e-06, "MEAN_MOTION_DDOT": 0}, "tle": {"line1": "1 34446U 93036SP  25354.55647050  .00000310  00000+0  87219-4 0  9997", "line2": "2 34446  74.0417  42.6229 0050770 178.8046 181.3246 14.49360911888078"}}, "geometry": {"type": "Point", "coordinates": [29.508034504941698, -35.62990137411248]}}, {"type": "Feature", "properties": {"norad_id": 34449, "name": "COSMOS 2251 DEB", "group": "cosmos-2251-debris", "lat": 63.35135051140224, "lon": 88.20171664915064, "alt_km": 560.3649614439983, "timestamp": "2025-12-21T05:44:51.981740+00:00", "meta": {"OBJECT_NAME": "COSMOS 2251 DEB", "OBJECT_ID": "1993-036SS", "EPOCH": "2025-12-19T05:31:05.790432", "MEAN_MOTION": 14.95222496, "ECCENTRICITY": 0.0022749, "INCLINATION": 74.0328, "RA_OF_ASC_NODE": 57.4655, "ARG_OF_PERICENTER": 95.9476, "MEAN_ANOMALY": 319.8524, "EPHEMERIS_TYPE": 0, "CLASSIFICATION_TYPE": "U", "NORAD_CAT_ID": 34449, "ELEMENT_SET_NO": 999, "REV_AT_EPOCH": 88790, "BSTAR": 0.0015083, "MEAN_MOTION_DOT": 0.00016676, "MEAN_MOTION_DDOT": 0}, "tle": {"line1": "1 34449U 93036SS  25353.22992813  .00016676  00000+0  15083-2 0  9993", "line2": "2 34449  74.0328  57.4655 0022749  95.9476 319.8524 14.95222496887904"}}, "geometry": {"type": "Point", "coordinates": [88.20171664915064, 63.35135051140224]}}, {"type": "Feature", "properties": {"norad_id": 34451, "name": "COSMOS 2251 DEB", "group": "cosmos-2251-debris", "lat": 57.06729831454396, "lon": 96.92591099414916, "alt_km": 558.3093502747324, "timestamp": "2025-12-21T05:44:51.981750+00:00", "meta": {"OBJECT_NAME": "COSMOS 2251 DEB", "OBJECT_ID": "1993-036SU", "EPOCH": "2025-12-20T15:01:58.696320", "MEAN_MOTION": 14.95981602, "ECCENTRICITY": 0.00238857, "INCLINATION": 74.0465, "RA_OF_ASC_NODE": 71.9548, "ARG_OF_PERICENTER": 86.7241, "MEAN_ANOMALY": 273.6675, "EPHEMERIS_TYPE": 0, "CLASSIFICATION_TYPE": "U", "NORAD_CAT_ID": 34451, "ELEMENT_SET_NO": 999, "REV_AT_EPOCH": 88753, "BSTAR": 0.0015186039, "MEAN_MOTION_DOT": 0.0001713, "MEAN_MOTION_DDOT": 0}, "tle": {"line1": "1 34451U 93036SU  25354.62637380  .00017130  00000+0  15186-2 0  9996", "line2": "2 34451  74.0465  71.9548 0023885  86.7241 273.6675 14.95981602887535"}}, "geometry": {"type": "Point", "coordinates": [96.92591099414916, 57.06729831454396]}}, {"type": "Feature", "properties": {"norad_id": 34452, "name": "COSMOS 2251 DEB", "group": "cosmos-2251-debris", "lat": -71.38344087360547, "lon": 107.01016595770892, "alt_km": 502.9382778251429, "timestamp": "2025-12-21T05:44:51.981760+00:00", "meta": {"OBJECT_NAME": "COSMOS 2251 DEB", "OBJECT_ID": "1993-036SV", "EPOCH": "2025-12-20T21:06:45.929664", "MEAN_MOTION": 15.1187856, "ECCENTRICITY": 0.00649436, "INCLINATION": 74.0319, "RA_OF_ASC_NODE": 165.9701, "ARG_OF_PERICENTER": 240.454, "MEAN_ANOMALY": 241.3455, "EPHEMERIS_TYPE": 0, "CLASSIFICATION_TYPE": "U", "NORAD_CAT_ID": 34452, "ELEMENT_SET_NO": 999, "REV_AT_EPOCH": 90785, "BSTAR": 0.00058518095, "MEAN_MOTION_DOT": 0.00010508, "MEAN_MOTION_DDOT": 0}, "tle": {"line1": "1 34452U 93036SV  25354.87969826  .00010508  00000+0  58518-3 0  9996", "line2": "2 34452  74.0319 165.9701 0064943 240.4540 241.3455 15.11878560907853"}}, "geometry": {"type": "Point", "coordinates": [107.01016595770892, -71.38344087360547]}}, {"type": "Feature", "properties": {"norad_id": 34454, "name": "COSMOS 2251 DEB", "group": "cosmos-2251-debris", "lat": -58.18766501754521, "lon": 109.42056269206438, "alt_km": 764.9503298199388, "timestamp": "2025-12-21T05:44:51.981770+00:00", "meta": {"OBJECT_NAME": "COSMOS 2251 DEB", "OBJECT_ID": "1993-036SX", "EPOCH": "2025-12-20T20:16:47.313120", "MEAN_MOTION": 14.38820497, "ECCENTRICITY": 0.00358508, "INCLINATION": 74.0587, "RA_OF_ASC_NODE": 262.7105, "ARG_OF_PERICENTER": 323.6357, "MEAN_ANOMALY": 36.2361, "EPHEMERIS_TYPE": 0, "CLASSIFICATION_TYPE": "U", "NORAD_CAT_ID": 34454, "ELEMENT_SET_NO": 999, "REV_AT_EPOCH": 88184, "BSTAR": 0.00017039874, "MEAN_MOTION_DOT": 5.01e-06, "MEAN_MOTION_DDOT": 0}, "tle": {"line1": "1 34454U 93036SX  25354.84499205  .00000501  00000+0  17040-3 0  9991", "line2": "2 34454  74.0587 262.7105 0035850 323.6357  36.2361 14.38820497881842"}}, "geometry": {"type": "Point", "coordinates": [109.42056269206438, -58.18766501754521]}}, {"type": "Feature", "properties": {"norad_id": 34459, "name": "COSMOS 2251 DEB", "group": "cosmos-2251-debris", "lat": 29.905519121787968, "lon": 49.90913566341996, "alt_km": 1019.7541608696829, "timestamp": "2025-12-21T05:44:51.981780+00:00", "meta": {"OBJECT_NAME": "COSMOS 2251 DEB", "OBJECT_ID": "1993-036TC", "EPOCH": "2025-12-20T15:18:49.084704", "MEAN_MOTION": 14.00511274, "ECCENTRICITY": 0.0192109, "INCLINATION": 74.0786, "RA_OF_ASC_NODE": 240.3974, "ARG_OF_PERICENTER": 308.4065, "MEAN_ANOMALY": 49.995, "EPHEMERIS_TYPE": 0, "CLASSIFICATION_TYPE": "U", "NORAD_CAT_ID": 34459, "ELEMENT_SET_NO": 999, "REV_AT_EPOCH": 85822, "BSTAR": 0.0002844, "MEAN_MOTION_DOT": 4.7e-06, "MEAN_MOTION_DDOT": 0}, "tle": {"line1": "1 34459U 93036TC  25354.63806811  .00000470  00000+0  28440-3 0  9999", "line2": "2 34459  74.0786 240.3974 0192109 308.4065  49.9950 14.00511274858222"}}, "geometry": {"type": "Point", "coordinates": [49.90913566341996, 29.905519121787968]}}, {"type": "Feature", "properties": {"norad_id": 34464, "name": "COSMOS 2251 DEB", "group": "cosmos-2251-debris", "lat": -34.6984782713648, "lon": -108.3374569096295, "alt_km": 478.25386788097876, "timestamp": "2025-12-21T05:44:51.981790+00:00", "meta": {"OBJECT_NAME": "COSMOS 2251 DEB", "OBJECT_ID": "1993-036TH", "EPOCH": "2025-12-20T22:31:07.638240", "MEAN_MOTION": 15.28128013, "ECCENTRICITY": 0.00146126, "INCLINATION": 73.9903, "RA_OF_ASC_NODE": 60.8361, "ARG_OF_PERICENTER": 243.1094, "MEAN_ANOMALY": 116.8615, "EPHEMERIS_TYPE": 0, "CLASSIFICATION_TYPE": "U", "NORAD_CAT_ID": 34464, "ELEMENT_SET_NO": 999, "REV_AT_EPOCH": 89965, "BSTAR": 0.0019131996, "MEAN_MOTION_DOT": 0.00052977, "MEAN_MOTION_DDOT": 0}, "tle": {"line1": "1 34464U 93036TH  25354.93828285  .00052977  00000+0  19132-2 0  9993", "line2": "2 34464  73.9903  60.8361 0014612 243.1094 116.8615 15.28128013899651"}}, "geometry": {"type": "Point", "coordinates": [-108.3374569096295, -34.6984782713648]}}]}